STARLINK-31561          
1 59352U 24060E   26068.53227136 -.00000079  00000+0  66345-5 0  9992
2 59352  42.9985 260.3254 0000666 172.8342 187.2519 15.27576343110042
PELICAN-6               
1 66703U 25276AP  26068.70709364  .00077979  00000+0  29726-2 0  9998
2 66703  97.4276 144.2072 0003569 157.8575 202.2819 15.26377980 15334
